{
  "63572": {
    "noradId": "63572",
    "tle": [
      "1 63572C 25076D   25314.46993056  .00043168  00000+0  15628-2 0  3146",
      "2 63572  43.0023 275.3256 0001141 256.4960  95.6132 15.27550897    12"
    ]
  },
  "63573": {
    "noradId": "63573",
    "tle": [
      "1 63573C 25076E   25314.47131944  .00042915  00000+0  15548-2 0  3148",
      "2 63573  43.0022 275.2986 0001288 255.0554 111.8507 15.27527304    11"
    ]
  },
  "63575": {
    "noradId": "63575",
    "tle": [
      "1 63575C 25076G   25314.46437500  .00041581  00000+0  15055-2 0  3147",
      "2 63575  43.0007 275.1681 0001197 255.5860 143.7573 15.27549448    11"
    ]
  },
  "63576": {
    "noradId": "63576",
    "tle": [
      "1 63576C 25076H   25314.46437500  .00042134  00000+0  15251-2 0  3141",
      "2 63576  43.0021 274.8332 0001596 268.1328 272.6893 15.27556705    10"
    ]
  },
  "63577": {
    "noradId": "63577",
    "tle": [
      "1 63577C 25076J   25314.46715278  .00043797  00000+0  15856-2 0  3140",
      "2 63577  43.0020 275.2860 0001535 256.3373 101.7060 15.27549190    11"
    ]
  },
  "63578": {
    "noradId": "63578",
    "tle": [
      "1 63578C 25076K   25314.47131944  .00039346  00000+0  14244-2 0  3149",
      "2 63578  43.0016 274.9124 0001428 268.0111 261.5352 15.27555978    17"
    ]
  },
  "63579": {
    "noradId": "63579",
    "tle": [
      "1 63579C 25076L   25314.47062500  .00039153  00000+0  14174-2 0  3149",
      "2 63579  43.0014 274.8480 0001412 266.2677 252.4513 15.27556316    15"
    ]
  },
  "63580": {
    "noradId": "63580",
    "tle": [
      "1 63580C 25076M   25314.46576389  .00043626  00000+0  15793-2 0  3143",
      "2 63580  43.0005 275.1234 0001665 267.5872 153.5452 15.27553215    17"
    ]
  },
  "63581": {
    "noradId": "63581",
    "tle": [
      "1 63581C 25076N   25314.46576389  .00043320  00000+0  15680-2 0  3140",
      "2 63581  43.0022 274.8394 0001540 268.0598 273.3392 15.27556762    17"
    ]
  },
  "63582": {
    "noradId": "63582",
    "tle": [
      "1 63582C 25076P   25314.46368056  .00044564  00000+0  16153-2 0  3148",
      "2 63582  43.0038 274.7607 0001400 287.2615 278.1889 15.27510591    13"
    ]
  },
  "63583": {
    "noradId": "63583",
    "tle": [
      "1 63583C 25076Q   25314.46923611  .00035858  00000+0  12973-2 0  3145",
      "2 63583  43.0023 274.6481 0001330 266.2101   4.9886 15.27580499    12"
    ]
  },
  "63584": {
    "noradId": "63584",
    "tle": [
      "1 63584C 25076R   25314.46506944  .00037593  00000+0  13612-2 0  3141",
      "2 63584  43.0028 274.5658 0001447 261.0741  29.7360 15.27552368    11"
    ]
  },
  "63585": {
    "noradId": "63585",
    "tle": [
      "1 63585C 25076S   25314.46993056  .00043108  00000+0  15611-2 0  3146",
      "2 63585  43.0025 274.5578 0001222 279.8702  30.6244 15.27541496    17"
    ]
  },
  "63586": {
    "noradId": "63586",
    "tle": [
      "1 63586C 25076T   25314.46784722  .00041802  00000+0  15133-2 0  3143",
      "2 63586  43.0009 275.0248 0001380 257.9518 210.0336 15.27553088    13"
    ]
  },
  "63587": {
    "noradId": "63587",
    "tle": [
      "1 63587C 25076U   25314.46923611  .00040968  00000+0  14834-2 0  3145",
      "2 63587  43.0011 274.9829 0001417 230.6619 259.1333 15.27548524    11"
    ]
  },
  "63588": {
    "noradId": "63588",
    "tle": [
      "1 63588C 25076V   25314.46784722  .00043458  00000+0  15729-2 0  3145",
      "2 63588  43.0010 275.0080 0001702 268.1775 206.8673 15.27558095    18"
    ]
  },
  "63589": {
    "noradId": "63589",
    "tle": [
      "1 63589C 25076W   25314.46715278  .00040839  00000+0  14790-2 0  3143",
      "2 63589  43.0014 275.2315 0001104 275.9021 103.3902 15.27542402    13"
    ]
  },
  "63590": {
    "noradId": "63590",
    "tle": [
      "1 63590C 25076X   25314.46784722  .00042854  00000+0  15515-2 0  3140",
      "2 63590  43.0025 275.3538 0001001 274.0501  52.4543 15.27550444    14"
    ]
  },
  "63591": {
    "noradId": "63591",
    "tle": [
      "1 63591C 25076Y   25314.46923611  .00043514  00000+0  15747-2 0  3144",
      "2 63591  43.0022 274.7468 0001528 279.5729 309.2068 15.27563481    13"
    ]
  },
  "63592": {
    "noradId": "63592",
    "tle": [
      "1 63592C 25076Z   25314.46506944  .00041598  00000+0  15064-2 0  3143",
      "2 63592  43.0009 275.1709 0001024 287.4393 108.5913 15.27543311    17"
    ]
  },
  "63593": {
    "noradId": "63593",
    "tle": [
      "1 63593C 25076AA  25314.46576389  .00044345  00000+0  16053-2 0  3146",
      "2 63593  43.0022 274.8501 0001605 275.0933 259.2464 15.27550981    13"
    ]
  },
  "63594": {
    "noradId": "63594",
    "tle": [
      "1 63594C 25076AB  25314.46437500  .00040764  00000+0  14760-2 0  3142",
      "2 63594  43.0011 275.2075 0001279 276.6707 101.4614 15.27548973    19"
    ]
  },
  "63595": {
    "noradId": "63595",
    "tle": [
      "1 63595C 25076AC  25314.46576389  .00042375  00000+0  15338-2 0  3144",
      "2 63595  43.0020 274.8404 0001711 255.0331 258.1306 15.27558461    17"
    ]
  },
  "63634": {
    "noradId": "63634",
    "tle": [
      "1 63634C 25083A   25314.46854167  .00032384  00000+0  11727-2 0  3146",
      "2 63634  43.0022 318.8564 0001510 264.6924 307.4686 15.27552494    19"
    ]
  },
  "63635": {
    "noradId": "63635",
    "tle": [
      "1 63635C 25083B   25314.46576389  .00035319  00000+0  12792-2 0  3148",
      "2 63635  43.0022 318.3146 0001260 264.8841 165.4631 15.27545967    12"
    ]
  },
  "63636": {
    "noradId": "63636",
    "tle": [
      "1 63636C 25083C   25314.46784722  .00036377  00000+0  13173-2 0  3140",
      "2 63636  43.0009 318.9115 0001464 254.3355 292.7859 15.27548919    16"
    ]
  },
  "63637": {
    "noradId": "63637",
    "tle": [
      "1 63637C 25083D   25314.46784722  .00037473  00000+0  13570-2 0  3140",
      "2 63637  43.0015 318.2014 0001110 266.5485 217.7218 15.27547159    13"
    ]
  },
  "63638": {
    "noradId": "63638",
    "tle": [
      "1 63638C 25083E   25314.46576389  .00032194  00000+0  11672-2 0  3145",
      "2 63638  43.0028 318.3389 0001114 262.2724 154.0672 15.27514865    12"
    ]
  },
  "63639": {
    "noradId": "63639",
    "tle": [
      "1 63639C 25083F   25314.46993056  .00036041  00000+0  13050-2 0  3147",
      "2 63639  43.0033 318.5192 0001361 266.1608  88.0697 15.27553257    12"
    ]
  },
  "63640": {
    "noradId": "63640",
    "tle": [
      "1 63640C 25083G   25314.46784722  .00034777  00000+0  12595-2 0  3144",
      "2 63640  43.0006 318.8981 0000252 205.3441 348.8503 15.27547315    12"
    ]
  },
  "63641": {
    "noradId": "63641",
    "tle": [
      "1 63641C 25083H   25314.46506944  .00033728  00000+0  12216-2 0  3148",
      "2 63641  43.0028 318.3832 0000743 255.0603 143.1729 15.27546217    10"
    ]
  },
  "63642": {
    "noradId": "63642",
    "tle": [
      "1 63642C 25083J   25314.46229167  .00035696  00000+0  12926-2 0  3142",
      "2 63642  43.0028 318.8114 0001441 265.7736 307.3464 15.27552030    10"
    ]
  },
  "63643": {
    "noradId": "63643",
    "tle": [
      "1 63643C 25083K   25314.47062500  .00036418  00000+0  13189-2 0  3145",
      "2 63643  43.0018 318.2327 0001164 265.7800 212.5601 15.27547681    10"
    ]
  },
  "63644": {
    "noradId": "63644",
    "tle": [
      "1 63644C 25083L   25314.46437500  .00033884  00000+0  12270-2 0  3145",
      "2 63644  43.0029 318.7814 0001585 259.7251 331.9483 15.27552552    16"
    ]
  },
  "63645": {
    "noradId": "63645",
    "tle": [
      "1 63645C 25083M   25314.46715278  .00036772  00000+0  13318-2 0  3140",
      "2 63645  43.0026 318.5880 0001374 261.1414  56.5947 15.27545102    17"
    ]
  },
  "63646": {
    "noradId": "63646",
    "tle": [
      "1 63646C 25083N   25314.46715278  .00033178  00000+0  12017-2 0  3143",
      "2 63646  43.0032 318.3959 0001168 264.1217 131.4417 15.27546238    11"
    ]
  },
  "63647": {
    "noradId": "63647",
    "tle": [
      "1 63647C 25083P   25314.47062500  .00037903  00000+0  13727-2 0  3147",
      "2 63647  43.0014 318.8282 0001447 260.0015 330.7246 15.27544592    12"
    ]
  },
  "63648": {
    "noradId": "63648",
    "tle": [
      "1 63648C 25083Q   25314.46854167  .00032260  00000+0  11684-2 0  3146",
      "2 63648  43.0022 318.2755 0001217 271.6645 181.0607 15.27549461    11"
    ]
  },
  "63649": {
    "noradId": "63649",
    "tle": [
      "1 63649C 25083R   25314.46715278  .00031912  00000+0  11559-2 0  3140",
      "2 63649  43.0013 318.1826 0000925 245.2144 242.3172 15.27546200    12"
    ]
  },
  "63650": {
    "noradId": "63650",
    "tle": [
      "1 63650C 25083S   25314.46784722  .00033528  00000+0  12142-2 0  3146",
      "2 63650  43.0035 318.4658 0001138 261.2778 109.7883 15.27550960    15"
    ]
  },
  "63651": {
    "noradId": "63651",
    "tle": [
      "1 63651C 25083T   25314.46923611  .00034241  00000+0  12401-2 0  3140",
      "2 63651  43.0032 318.4001 0001094 256.2331 143.7272 15.27546464    19"
    ]
  },
  "63652": {
    "noradId": "63652",
    "tle": [
      "1 63652C 25083U   25314.46576389  .00029209  00000+0  10580-2 0  3141",
      "2 63652  43.0024 318.3151 0001062 272.0388 151.2564 15.27549260    14"
    ]
  },
  "63653": {
    "noradId": "63653",
    "tle": [
      "1 63653C 25083V   25314.46784722  .00036424  00000+0  13193-2 0  3144",
      "2 63653  43.0027 318.7233 0001430 261.3712   3.5948 15.27541764    10"
    ]
  },
  "63654": {
    "noradId": "63654",
    "tle": [
      "1 63654C 25083W   25314.46368056  .00032785  00000+0  11871-2 0  3140",
      "2 63654  43.0025 318.7118 0001643 273.2256 342.9196 15.27556482    10"
    ]
  },
  "63655": {
    "noradId": "63655",
    "tle": [
      "1 63655C 25083X   25314.46368056  .00036828  00000+0  13338-2 0  3143",
      "2 63655  43.0027 318.7301 0001567 275.0599 334.0258 15.27545956    17"
    ]
  }
}